Satellite Name,TLE Line 1,TLE Line 2
STAR VIBE,1 55009U 23001A   25298.12889157  .00016730  00000+0  49453-3 0  9996,2 55009  97.3528 357.4249 0005590 232.8439 127.2294 15.34988522156072
MENUT,1 55010U 23001B   25298.15446204  .00038815  00000+0  10999-2 0  9993,2 55010  97.3592 357.8519 0004787 226.8563 133.2281 15.36145292156059
BRO-8,1 55011U 23001C   25298.19551337  .00029364  00000+0  86920-3 0  9999,2 55011  97.3589 356.9904 0006648 245.9680 114.0867 15.34823506155992
CONNECTA T1.2,1 55012U 23001D   25298.16005987  .00017495  00000+0  46185-3 0  9993,2 55012  97.3619   1.6217 0006833 216.5433 143.5346 15.38500743156285
BIRKELAND,1 55015U 23001G   25298.15537584  .00014852  00000+0  44184-3 0  9999,2 55015  97.3664   0.9543 0006658 219.5613 140.5145 15.34806087156235
OBJECT H,1 55016U 23001H   25298.17859218  .00017029  00000+0  51068-3 0  9991,2 55016  97.3514 357.4803 0006469 227.0647 133.0054 15.34523580156094
KSF3-B,1 55019U 23001L   25298.18460388  .00170200  00000+0  14793-2 0  9995,2 55019  97.3551  13.3892 0003980 137.9352 222.2216 15.68531838157095
LYNK TOWER 4,1 55034U 23001AB  25298.20136646  .00010889  00000+0  38977-3 0  9999,2 55034  97.3560 354.5715 0007830 228.6166 131.4401 15.28919131155867
UMBRA-05,1 55036U 23001AD  25298.12165183  .00322703  00000+0  27485-2 0  9992,2 55036  97.3469 358.1090 0001363 209.9728 150.1456 15.68573948156094
SKYKRAFT-1,1 55041U 23001AJ  25298.17354145  .00035671  00000+0  72640-3 0  9990,2 55041  97.3543   4.0805 0006517 195.8612 164.2434 15.46154623156504
NUSAT-34 (AMELIA EARHA*),1 55045U 23001AN  25298.16015706  .00014844  00000+0  59937-3 0  9993,2 55045  97.3668 359.6003 0007946 188.3007 171.8100 15.24843173156377
LYNK TOWER 3,1 55046U 23001AP  25298.16028888  .00015509  00000+0  53597-3 0  9994,2 55046  97.3564 355.1284 0007894 231.5851 128.4681 15.29982108155890
NUSAT-33 (ALBANIA-2),1 55047U 23001AQ  25298.15664358  .00014780  00000+0  57531-3 0  9994,2 55047  97.3379 358.5207 0008823 155.9350 204.2303 15.26063659156447
NUSAT-35 (WILLIAMINA),1 55048U 23001AR  25298.20328076  .00016332  00000+0  56280-3 0  9990,2 55048  97.2232 352.2671 0005195 209.8490 150.2455 15.30076495156427
ICEYE-X21,1 55049U 23001AS  25298.19350366  .00060329  00000+0  10058-2 0  9993,2 55049  97.3595   6.6785 0014236 193.7559 166.3308 15.51679400156658
ION SCV-008,1 55051U 23001AU  25298.21716959  .00009653  00000+0  39221-3 0  9990,2 55051  97.5797  26.2099 0017491 118.0552 242.2456 15.24639188155489
EOSSAT-1,1 55053U 23001AW  25298.12166317  .00010294  00000+0  36077-3 0  9998,2 55053  97.3585 355.8827 0008721 228.4310 131.6183 15.29618787155933
SKYKRAFT-1A,1 55054U 23001AX  25298.13897558  .00006672  00000+0  26093-3 0  9990,2 55054  97.3579 354.1455 0008987 238.3246 121.7116 15.26140050155833
VIGORIDE-5,1 55056U 23001AZ  25298.13416574  .00026195  00000+0  60135-3 0  9994,2 55056  97.3556 359.8041 0003691 207.3746 152.7307 15.42682957156215
SKYKRAFT-1B,1 55058U 23001BB  25298.18664251  .00192231  00000+0  11706-2 0  9992,2 55058  97.3457  12.7320 0004503 191.1404 168.9763 15.76886012157082
ION SCV-007,1 55060U 23001BD  25298.11768220  .00000831  00000+0  12432-3 0  9991,2 55060  97.9345   0.4166 0012827  21.4125 338.7619 14.77225000151548
SKYKRAFT-1C,1 55061U 23001BE  25298.16228395  .00005518  00000+0  23741-3 0  9993,2 55061  97.3558 351.8249 0009375 252.0654 107.9561 15.22996269155681
ICEYE-X27,1 55062U 23001BF  25298.14319628  .00382297  00000+0  15217-2 0  9992,2 55062  97.3476  10.9113 0004090 224.2698 135.8246 15.85688341156939
NUSAT-32 (ALBANIA-1),1 55064U 23001BH  25298.14818295  .00098182  00000+0  10558-2 0  9998,2 55064  97.2113   1.0462 0005086 147.7433 212.4138 15.63411418157442
YAM-5,1 55076U 23001BV  25298.13826042  .00013599  00000+0  43506-3 0  9998,2 55076  97.3554 357.0984 0008981 226.3595 133.6903 15.32496239156036
OBJECT CA,1 55081U 23001CA  25297.99687154  .00133521  00000+0  96109-3 0  9991,2 55081  97.3489  12.8736 0004743 181.3430 178.7822 15.73175717157053
GAMA-ALPHA,1 55084U 23001CD  25298.15785837  .00112055  00000+0  10400-2 0  9998,2 55084  97.3540  11.2831 0005687 178.4801 181.6478 15.67079817156988
KSF3-A,1 55086U 23001CF  25298.17713495  .00200175  00000+0  15984-2 0  9996,2 55086  97.3558  13.5261 0000771 209.9369 150.1849 15.70513844157104
HUYGENS,1 55093U 23001CN  25298.22063755  .00011767  00000+0  35036-3 0  9995,2 55093  97.3582   0.5311 0010352 199.9982 160.0856 15.34806436156262
KUWAITSAT-1,1 55103U 23001CY  25298.11983632  .00023751  00000+0  62232-3 0  9994,2 55103  97.3581   1.6760 0010004 201.0578 159.0257 15.38640084156311
SHARJAHSAT-1,1 55104U 23001CZ  25298.16198115  .00022770  00000+0  59206-3 0  9991,2 55104  97.3535 359.8718 0006198 225.8831 134.1905 15.38916065156226
AAC-AIS-SAT1,1 55107U 23001DC  25298.18511837  .00007041  00000+0  75245-3 0  9991,2 55107  97.9446   8.9276 0009261 339.6585  20.4262 14.89055241143270
ASTROCAST-0402,1 55109U 23001DE  25298.19429855  .00013929  00000+0  58557-3 0  9991,2 55109  97.5692  23.6473 0004925   5.6087 354.5204 15.23520873108694
ASTROCAST-0401,1 55110U 23001DF  25298.14356463  .00010392  00000+0  43741-3 0  9992,2 55110  97.5682  23.5983 0007742 319.7114  40.3548 15.23541018155361
ASTROCAST-0403,1 55111U 23001DG  25297.76502118  .00018383  00000+0  76296-3 0  9999,2 55111  97.5743  23.5662 0007070  90.4365 269.7682 15.23881357108625
ASTROCAST-0404,1 55112U 23001DH  25298.17957742  .00009533  00000+0  40183-3 0  9996,2 55112  97.5772  24.3795 0008706 103.3036 256.9172 15.23510113108698
